#dP2022  2 28  6  0  0.00000000      96 __u+U ITR00 EXT  IAC
## 2199 108000.00000000   900.00000000 59638 0.2500000000000
+  118   C06C07C08C09C10C11C12C13C14C16C19C20C21C22C23C24C25
+        C26C27C28C29C30C32C33C34C35C36C37C38C39C40C41C42C43
+        C44C45C46E01E02E03E04E05E07E08E09E10E11E12E13E14E15
+        E18E19E21E24E25E26E27E30E31E33E34E36G01G02G03G04G05
+        G06G07G08G09G10G11G12G13G14G15G16G17G18G19G20G21G22
+        G23G24G25G26G27G28G29G30G31G32J01J02J03R01R02R03R04
+        R05R07R08R09R11R12R13R14R15R17R18R19R20R21R22R24  0
++        10 10 10 10  9  8  8  9  9 10 10  9  7  7 10  8  7
++         9  8  7  9 10  9  8  8  8  8  9  9 10  9  9  8  7
++        10  8 11  8  8  8  7  7  8  8  8  9  9  9  8  7  7
++         7  8  7  7  8  8  7  9  8  9  8  8  8  8  8  9  8
++         7  7  7  8  8  7  9  7  8  8  8  9  6  7  7  9  7
++         7  7  7  7  7  7  9  6  8  8 10  9 10  9  7  9  9
++         9  9  8  9  8  8  9  9  8  8  8  9  8  8 10  9  0
%c M  cc GPS ccc cccc cccc cccc cccc ccccc ccccc ccccc ccccc
%c cc cc ccc ccc cccc cccc cccc cccc ccccc ccccc ccccc ccccc
%f  0.0000000  0.000000000  0.00000000000  0.000000000000000
%f  0.0000000  0.000000000  0.00000000000  0.000000000000000
%i    0    0    0    0      0      0      0      0         0
%i    0    0    0    0      0      0      0      0         0
/* IAC                                ULTRA-RAPID PREDICTION
/* S/V CLOCKS ARE ALIGNED TO GNSS TIME                      
/* G:C1WC2W R:C1PC2P E:C1XC5X C:C2IC6I J:C1CC2S             
/* PCV:IGS14_2196 OL/AL:FES2004  NONE     YN ORB:CoN CLK:CoN
*  2022 02 28 12 15  0.00000000
PC06  -9143.760725  22999.749135 -34143.692484    129.606552
PC07 -17320.003790  36577.493893  11566.564304   -109.324881
PC08  -1622.877924  36631.826148  20958.813682    165.391915
PC09   2329.701863  25509.364608 -33090.768145   -562.665167
PC10 -10320.038678  36601.775269  17958.401047    139.506948
PC11  -5933.772389 -16377.821364 -21729.205484   -180.556034
PC12  14194.824981 -10868.097270 -21391.241692    681.593583
PC13   3892.039693  39851.398653  13765.529102   -103.486326
PC14   3452.453300 -21394.644769  17636.843286    452.453951
PC16 -10113.874158  22084.146817 -34320.329479     92.374345
PC19   5747.192104  16016.457307 -22085.143573    891.566921
PC20 -10590.594854  22957.276733 -11766.362438   -833.793116
PC21  21613.853403 -16515.159420  -6257.701466   -932.478187
PC22  19439.055661   -465.739231 -20019.892207   -958.880382
PC23 -17360.211355 -10700.815348 -19049.077130   -951.452523
PC24   2451.646797 -24642.185704  12818.411210   -944.766848
PC25 -11832.197487 -24696.021768  -5317.171019   -772.802596
PC26  13027.828534 -11123.387947  22008.128516    772.786093
PC27 -22001.086378   5858.940155  16131.152570    684.513159
PC28 -27047.562893  -6873.334783     91.954680     37.984547
PC29  16675.192883  15219.649328  16392.053942    521.254328
PC30  -4375.428618  15304.249076  22916.471109    494.250078
PC32 -21510.482919  16604.376639   6354.984256   -971.475971
PC33  -5782.763940 -16088.162312  22068.644311   -960.936323
PC34   3242.463363 -15611.151703 -22911.997278   -458.908753
PC35  27127.196383   6419.505010    677.784189    160.458232
PC36  10985.546352  25197.087458   4855.864650   -922.264088
PC37 -13775.704580   9699.884478 -22241.313911   -951.756741
PC38  -6930.794493  33179.879708  25198.828184    214.621665
PC39 -17007.577536  20116.739544 -32940.576406     34.829052
PC40 -24033.337650  32911.479206  10464.658187    248.268426
PC41 -19252.512026     32.622998  20256.770217   -945.755982
PC42  11306.553906 -23058.720762  10985.628934   -934.000730
PC43 -16006.212036 -15545.745262 -16784.377882   -938.968881
PC44  21896.572530  -6628.604400 -15962.904321    579.534006
PC45  17286.595414  10499.929580  19232.334864    692.376345
PC46  -1349.823981  25307.958984 -11731.993600   -192.597621
PE01  17378.192373  -3974.591237  23622.833130   -587.743157
PE02 -17401.840581   4191.607478 -23585.969972    283.189500
PE03 -28668.682276   4946.985434   5435.232713   -532.466485
PE04  21478.716170 -16012.843914  12591.155328   -974.393394
PE05 -19139.045522  -9239.929847  20607.681069   -204.807507
PE07  -1392.699648  17844.370855 -23568.655072   -643.602543
PE08 -21134.588568  16159.419705 -12965.903982   -487.235323
PE09   1122.534754 -17677.153160  23721.474273   5344.736649
PE10   1443.975805 -18658.329445 -22936.655663   -497.844506
PE11  -8481.691920 -22694.513076 -17024.244114   4346.325692
PE12  10789.845395 -12005.314933 -24808.034036   4736.983972
PE13   7933.401752  22474.902860  17553.487488    426.905412
PE14  21663.426591 -16705.042154 -17195.737283  -1761.622947
PE15 -10870.775352  11836.180465  24867.145996    760.603833
PE18 -18005.150726  10792.683921  10945.215723  -1739.506606
PE19  28391.121740  -3191.795595  -7723.456331   -531.040699
PE21  11438.807141  16479.330257  21763.686133   -719.797434
PE24   2370.889920 -28847.962927  -6131.028669  -1415.242647
PE25 -11314.361733 -16700.530435 -21657.257376   -565.169779
PE26  22305.916981  19428.111443  -1018.088696   -857.813091
PE27  -1408.640153  28661.604826   7294.791037   -242.515347
PE30 -13923.171065  23092.540698 -12248.653111   -310.542003
PE31  13320.246810 -23867.113145  11349.840777   -492.843124
PE33  23173.993785   5730.572366 -17483.917616   -459.009664
PE34 -23126.756454  -5504.814418  17633.675321   -504.241947
PE36 -21973.137697 -19844.545825     42.058190   -338.668334
PG01 -20225.542946 -11145.755055  13145.922389    420.352063
PG02  13832.709650  21567.632559   7380.086323   -651.614420
PG03 -15273.409377  -1113.041329  21586.655753   -142.096619
PG04 -25642.322869  -1395.127872   6953.692401   -186.782710
PG05   8212.433933  17114.940669 -18675.586258    -73.012338
PG06     88.903138  19212.463379  18373.847898    215.884809
PG07 -15404.266113   4666.772048 -20820.620925    313.310747
PG08 -20090.755576  -7396.846007 -15970.821701    -57.972360
PG09 -25173.603377   7616.458608  -3895.187574   -352.136160
PG10  11546.176412 -23358.355921  -4117.407551   -333.132209
PG11  11537.949582  23058.304264   6405.408298    -75.133466
PG12  13896.678665   5390.678606  21713.652181   -177.789569
PG13  12314.440684  13123.089486 -19740.576914    269.067516
PG14 -13094.856970  22550.388578  -4846.214051    -88.986854
PG15  21205.299754   5682.691210 -15574.829566    -80.397171
PG16  -3270.952199 -20185.825358 -16955.151942   -475.064014
PG17 -15556.734999  13379.800244  17326.339097    581.052624
PG18  14881.716929  -4901.534193 -21462.906670    230.423833
PG19  -7817.059162  14384.687333  20611.909438    124.840378
PG20   3287.159763  24093.736670 -10973.537923    516.503202
PG21 -20762.091564 -16651.252982   4624.437698    158.740103
PG22   3931.028619 -15470.562571  21605.335968    220.350060
PG23  15737.091729 -15922.925660 -14228.274324     -2.737084
PG24  21583.292098  13090.230882   8604.681280    271.782565
PG25  16814.254403  -8893.522902  18134.434218    291.825896
PG26   3614.817549 -25552.607126  -5627.134198    186.977673
PG27  -9294.546581 -13154.812824 -21387.647718    137.197497
PG28  -8667.956176  24945.459692   4332.648157    390.722184
PG29  26246.437870  -3822.520309  -1958.591559   -485.707090
PG30  -9022.484142  13430.355219 -20958.194106   -516.056516
PG31  -1542.396335 -20569.034216  16339.389651   -166.800420
PG32  10887.011327 -15360.959281  18790.631548    -75.879935
PJ01 -36572.423015  20117.299713  -1172.877916    224.074058
PJ02 -22887.294816  30483.397827 -13443.952324     -1.647894
PJ03 -28247.316266  22396.827929  26926.909262     -0.741351
PR01  10329.188534   5787.532221 -22590.828384      7.153687
PR02  21247.029847  -8832.741855 -10895.146450    511.053529
PR03  18031.163801 -16816.326478   6472.362156     52.283168
PR04   4995.801777 -15073.311971  19989.124543    129.764556
PR05 -10887.013132  -5149.949055  22502.798449     88.536191
PR07 -17772.244141  16916.900089  -7023.362821     32.130627
PR08  -4869.793953  15132.397428 -19899.405531    -63.776644
PR09 -11193.483679   1579.862029 -22853.602582     41.878374
PR11   2624.034766  25353.524082   -853.037543     44.692083
PR12   9716.492221  17043.248071  16335.547419     17.309366
PR13  11058.070230   -283.427366  22962.795175    -18.844438
PR14   5762.614771 -18898.865985  16144.746993     74.879448
PR15  -2656.251006 -25367.758242     98.525209     97.891641
PR17  10449.167792  -6405.554659 -22364.667822    505.576206
PR18  -6687.702294 -13314.424085 -20704.644562    108.787756
PR19 -19229.589477 -14033.538733  -9165.609103   -179.823911
PR20 -22328.190509  -5617.652106  11043.944529    -65.786588
PR21  -9040.355311   7111.757228  22767.379816   -281.573681
PR22   7371.743578  13467.571790  20325.409009   -167.571384
PR24  22303.012791   4485.848433 -11525.119114     82.242102
EOF
